{
"type": "FeatureCollection",
"name": "lahore_boundary",
"crs": { "type": "name", "properties": { "name": "urn:ogc:def:crs:OGC:1.3:CRS84" } },
"features": [
{ "type": "Feature", "properties": { "adm2_name": "Lahore", "adm2_pcode": "PK617", "adm1_name": "Punjab", "area_sqkm": 1729.8931021799999 }, "geometry": { "type": "MultiPolygon", "coordinates": [ [ [ [ 74.530226685, 31.698088677999976 ], [ 74.535580603000028, 31.689835241000026 ], [ 74.541489867999985, 31.680725696000025 ], [ 74.550552482, 31.66704441600001 ], [ 74.55711426, 31.657138496000016 ], [ 74.571815037000022, 31.633947236999973 ], [ 74.575804091, 31.627654292999978 ], [ 74.578497936000019, 31.623404608999977 ], [ 74.579145042, 31.622005963999982 ], [ 74.583467410000026, 31.612663665000014 ], [ 74.586349422000012, 31.606434529000012 ], [ 74.592606381999985, 31.592309711999974 ], [ 74.60088943, 31.567888607999976 ], [ 74.602072733999989, 31.560610677999989 ], [ 74.604476709999972, 31.545684289 ], [ 74.605804572000011, 31.537483757000018 ], [ 74.605846671, 31.536973190000026 ], [ 74.607336922, 31.51889275100001 ], [ 74.609899231999975, 31.511501104999979 ], [ 74.611740696000027, 31.506188929000018 ], [ 74.630567491000022, 31.487345705999985 ], [ 74.634253963999981, 31.483656015 ], [ 74.639479557000016, 31.471842770000023 ], [ 74.641113298, 31.464702115000023 ], [ 74.625344918, 31.423617358 ], [ 74.601204381, 31.404034481 ], [ 74.594574164999983, 31.39709321700002 ], [ 74.586107791000018, 31.378032148999978 ], [ 74.577068107, 31.357680338000023 ], [ 74.572119831, 31.346539862999975 ], [ 74.571214579000014, 31.344453081999973 ], [ 74.547050763000016, 31.353148036 ], [ 74.54651800900001, 31.353319662999979 ], [ 74.539781810000022, 31.355488391999984 ], [ 74.534310018999975, 31.357250044000011 ], [ 74.533139998000024, 31.357751457 ], [ 74.53157988800001, 31.358420043000024 ], [ 74.52949019, 31.358437521999974 ], [ 74.527307516, 31.358455777000017 ], [ 74.525564724999981, 31.358470354000019 ], [ 74.522055326999975, 31.35850057 ], [ 74.518180514999983, 31.359474541 ], [ 74.516501198000014, 31.359900734 ], [ 74.515395547000026, 31.359647584000015 ], [ 74.513323717, 31.359174012999972 ], [ 74.512305368, 31.35893357499998 ], [ 74.511842401000024, 31.358218293999983 ], [ 74.511108146000026, 31.357059920999973 ], [ 74.510802882, 31.356582462 ], [ 74.510317424, 31.354840573999979 ], [ 74.510787885000013, 31.353813202000026 ], [ 74.511131157000023, 31.353096944000015 ], [ 74.512112748, 31.351331768000023 ], [ 74.510979298999985, 31.349789295999983 ], [ 74.509065589999977, 31.349144998999975 ], [ 74.505413096999973, 31.348456785 ], [ 74.504849310999987, 31.348421069999972 ], [ 74.50262251800001, 31.348371203999989 ], [ 74.501689724000016, 31.348360634000016 ], [ 74.500900923000017, 31.348553303000017 ], [ 74.49773167, 31.349330220000013 ], [ 74.496554844, 31.349621873999979 ], [ 74.49563651, 31.350478743999986 ], [ 74.494588626, 31.351464021000027 ], [ 74.493852584000024, 31.352230376000023 ], [ 74.493436921000011, 31.353016360000026 ], [ 74.493183354999985, 31.353496092 ], [ 74.492599688999974, 31.35459952399998 ], [ 74.492438181000011, 31.355521979 ], [ 74.491984214000013, 31.358106382000017 ], [ 74.491848396000023, 31.358855915 ], [ 74.491783590000011, 31.35938928500002 ], [ 74.491605275999973, 31.360191787000019 ], [ 74.491134267, 31.362782429 ], [ 74.490482831, 31.364300168 ], [ 74.489842634000013, 31.364826390000019 ], [ 74.488890749, 31.365230302999976 ], [ 74.487618757, 31.365562135 ], [ 74.486164852, 31.365464083 ], [ 74.483807334, 31.364540504 ], [ 74.482269082000016, 31.363924451 ], [ 74.481053089999989, 31.364081412000019 ], [ 74.480083041, 31.364210599999979 ], [ 74.477541312000028, 31.364551369000026 ], [ 74.476851715, 31.36464411999998 ], [ 74.476320133, 31.364716462999979 ], [ 74.471940259, 31.36536356 ], [ 74.471147761, 31.36548220100002 ], [ 74.470386125, 31.365465981 ], [ 74.469700214999989, 31.365451511 ], [ 74.469121866000023, 31.365439314000014 ], [ 74.467841656000019, 31.364872445 ], [ 74.466707606999989, 31.364370195 ], [ 74.465720512000019, 31.363332349000018 ], [ 74.465088956999978, 31.362090493999972 ], [ 74.465050651000013, 31.36128441 ], [ 74.465486339999984, 31.36024228399998 ], [ 74.465864853000028, 31.359621489 ], [ 74.466707757, 31.358797485000025 ], [ 74.465021897999975, 31.355861213000026 ], [ 74.463388934000022, 31.355234795 ], [ 74.462020446999986, 31.354709835999984 ], [ 74.458107829000028, 31.354922676 ], [ 74.457377856999983, 31.355345076 ], [ 74.45683057399998, 31.355632519999972 ], [ 74.455901121000011, 31.355871579999985 ], [ 74.45510673299998, 31.355718855000021 ], [ 74.45462971, 31.35561882899998 ], [ 74.453940949000014, 31.355012439 ], [ 74.453512220999983, 31.354529711 ], [ 74.452612371999976, 31.353650675999972 ], [ 74.451938542999983, 31.352038735 ], [ 74.451632217999986, 31.351270053 ], [ 74.451509249000026, 31.3506 ], [ 74.449789376000012, 31.341263562999984 ], [ 74.449470271, 31.33952948000001 ], [ 74.449309428999982, 31.33821384700002 ], [ 74.448506920999989, 31.331637167999986 ], [ 74.448232295000025, 31.329273973 ], [ 74.448115914000027, 31.328615905999982 ], [ 74.447877936999987, 31.327561125999978 ], [ 74.447962929000028, 31.326237948000028 ], [ 74.448038280999981, 31.325031702 ], [ 74.44795938599998, 31.321835355000019 ], [ 74.447256434999986, 31.32130235 ], [ 74.446248619000016, 31.319778091999979 ], [ 74.444250404, 31.319494870000028 ], [ 74.443232373, 31.319350027999974 ], [ 74.442013261, 31.318305921999979 ], [ 74.441729529999975, 31.317929494 ], [ 74.441597834999982, 31.316943751999986 ], [ 74.441408137999986, 31.315541068000016 ], [ 74.440730637, 31.315088501 ], [ 74.438872905999972, 31.314890312999978 ], [ 74.438185534000013, 31.314816902000018 ], [ 74.437547766000023, 31.314801879000015 ], [ 74.436831838999979, 31.314062662000026 ], [ 74.436591653999983, 31.313028029 ], [ 74.436635749, 31.312195632999988 ], [ 74.436790777999988, 31.309398048 ], [ 74.4368349, 31.30861897 ], [ 74.437416665, 31.306944704999978 ], [ 74.438542907, 31.306088940999985 ], [ 74.439133933, 31.305498243999978 ], [ 74.439648874999989, 31.304957178999985 ], [ 74.440131077999979, 31.304450515999974 ], [ 74.440592673000026, 31.30353114899998 ], [ 74.440819502000011, 31.302870267 ], [ 74.440481493, 31.301200395000023 ], [ 74.439931838, 31.300029833999986 ], [ 74.439238658000022, 31.299422804000017 ], [ 74.43699245800002, 31.297433259 ], [ 74.436606117999986, 31.297032200999979 ], [ 74.43615315, 31.296539789 ], [ 74.435973149, 31.296137480000027 ], [ 74.435789296999985, 31.29572656900001 ], [ 74.435834802999977, 31.295224969 ], [ 74.436067784999977, 31.293860716999973 ], [ 74.437028499, 31.292869742 ], [ 74.437522237, 31.292656055 ], [ 74.43814475, 31.292381096999975 ], [ 74.438967046000016, 31.290668970000013 ], [ 74.438487716999987, 31.289917985999978 ], [ 74.437378973000023, 31.28976216 ], [ 74.436186752000026, 31.290026565 ], [ 74.435591337, 31.290158615 ], [ 74.434123003000025, 31.291145368 ], [ 74.433592676999979, 31.291631707000022 ], [ 74.432129460999988, 31.292972255 ], [ 74.430075975000022, 31.293353041999978 ], [ 74.428985867, 31.293555759000014 ], [ 74.428552831, 31.293636832 ], [ 74.427424218999988, 31.293849630000011 ], [ 74.425157505000016, 31.294290618 ], [ 74.420072862999973, 31.295874932 ], [ 74.419061987000021, 31.29619025 ], [ 74.418387622000012, 31.296440319 ], [ 74.417825404999974, 31.296655419999979 ], [ 74.417190237999989, 31.296965517999979 ], [ 74.416343005999977, 31.297379149 ], [ 74.41418067799998, 31.298442546 ], [ 74.413705413, 31.299110486000018 ], [ 74.413377939999975, 31.299581739000018 ], [ 74.413155001, 31.301241673999982 ], [ 74.413059573, 31.301936119 ], [ 74.412936620999972, 31.302830847 ], [ 74.412509929, 31.303293165000014 ], [ 74.411641997, 31.303741640999988 ], [ 74.410378763999972, 31.303712334000011 ], [ 74.409352394, 31.303278315 ], [ 74.404285721, 31.301151831000027 ], [ 74.403366585000015, 31.300763831999973 ], [ 74.402819138999973, 31.300427913000021 ], [ 74.401901122000027, 31.3000288 ], [ 74.400379091, 31.298938514999975 ], [ 74.399536984, 31.298327793 ], [ 74.398746394999989, 31.297824045000027 ], [ 74.395862769000018, 31.297014914999977 ], [ 74.395201107, 31.296948056000019 ], [ 74.393869757, 31.297017816 ], [ 74.392674914999986, 31.297078941999985 ], [ 74.391821945, 31.297048297 ], [ 74.390727148, 31.296972674000017 ], [ 74.388311432000023, 31.296760231 ], [ 74.385376823, 31.295501103999982 ], [ 74.383984489999989, 31.294875558 ], [ 74.382400206999989, 31.294161334000023 ], [ 74.381331851000027, 31.294136676999983 ], [ 74.380124235999972, 31.294536056000027 ], [ 74.379370682, 31.295171784 ], [ 74.378461882000011, 31.295950882999989 ], [ 74.377468979000014, 31.296124711 ], [ 74.376988284, 31.296127908000017 ], [ 74.375998278999987, 31.295859923000023 ], [ 74.375431118999984, 31.295734736999975 ], [ 74.374680022, 31.295498421 ], [ 74.373440086000016, 31.295158508999975 ], [ 74.372908390000021, 31.29498179 ], [ 74.372236832, 31.294732348000025 ], [ 74.371108871, 31.294314322 ], [ 74.368907248000028, 31.293487089999985 ], [ 74.368269633000011, 31.29322838600001 ], [ 74.367107868, 31.292776888 ], [ 74.366497770000024, 31.292541493999977 ], [ 74.36603392, 31.292350003000024 ], [ 74.364917391, 31.291698049 ], [ 74.364313046, 31.291374432999987 ], [ 74.36286964300001, 31.290501296 ], [ 74.362091674, 31.289544896 ], [ 74.361500632, 31.288872718999983 ], [ 74.359970131000011, 31.287149284 ], [ 74.358721399999979, 31.286432729000012 ], [ 74.357439350999982, 31.285730679999972 ], [ 74.356880774999979, 31.285424805 ], [ 74.356477975000018, 31.28528868799998 ], [ 74.354890857999976, 31.284752360000027 ], [ 74.354092021999975, 31.284482412999978 ], [ 74.35330101400001, 31.28435779900002 ], [ 74.352203491000012, 31.284380019000025 ], [ 74.351277755000012, 31.284398746000022 ], [ 74.350173704999975, 31.284452663000025 ], [ 74.349603899999977, 31.284586005999984 ], [ 74.344642782, 31.285730936999983 ], [ 74.343883028999983, 31.285903254 ], [ 74.342542757999979, 31.286397277 ], [ 74.339841885999988, 31.287428018000014 ], [ 74.338640324999972, 31.287823871 ], [ 74.335773266999979, 31.288849234999986 ], [ 74.333747943, 31.289148223999973 ], [ 74.333094414000016, 31.289244506999978 ], [ 74.330990874, 31.289372230000026 ], [ 74.329876591000016, 31.289205032999973 ], [ 74.328183025999977, 31.288901104 ], [ 74.327301127, 31.28871424 ], [ 74.326049908000016, 31.28844912400001 ], [ 74.324837684999977, 31.287888955000028 ], [ 74.323965982, 31.28748614 ], [ 74.323219547, 31.287141212 ], [ 74.322739270999989, 31.286919341999976 ], [ 74.321500308, 31.286220613000012 ], [ 74.321062589, 31.28597371 ], [ 74.319389679999972, 31.285030205999988 ], [ 74.317445725000027, 31.284491365 ], [ 74.315889197, 31.284059914000011 ], [ 74.314285889000018, 31.284048128999984 ], [ 74.313089545000025, 31.284039372 ], [ 74.308538866999982, 31.285139597000011 ], [ 74.307835069000021, 31.285097367 ], [ 74.304931217999979, 31.284867822000024 ], [ 74.304254199000013, 31.284814305 ], [ 74.303582307999989, 31.2848128 ], [ 74.30308013299998, 31.284824680999975 ], [ 74.299899251999989, 31.284899397 ], [ 74.299474004999979, 31.285019072000011 ], [ 74.298642788, 31.285253136999984 ], [ 74.298119864, 31.285593242 ], [ 74.296758539, 31.286716190999982 ], [ 74.296295203, 31.287058050999974 ], [ 74.295800897999982, 31.287328302 ], [ 74.295351155999981, 31.287574244999973 ], [ 74.294967262, 31.287764448000019 ], [ 74.293193656000028, 31.288414898999974 ], [ 74.292285562000018, 31.288667628999974 ], [ 74.290126181, 31.288860280999984 ], [ 74.289249618999975, 31.289051324000013 ], [ 74.28763561400001, 31.289455062 ], [ 74.287155915000028, 31.289617195 ], [ 74.286590235, 31.289818926 ], [ 74.286108286, 31.290114534 ], [ 74.284978130000013, 31.291058624000016 ], [ 74.28395863999998, 31.291654799000014 ], [ 74.283171251999988, 31.292294812000023 ], [ 74.281281831, 31.293781604 ], [ 74.280748182000025, 31.294202314000017 ], [ 74.279881710999973, 31.294532475999972 ], [ 74.279466501, 31.294690687000013 ], [ 74.278567424000016, 31.295028127000023 ], [ 74.277951218999988, 31.295083025 ], [ 74.277440233999982, 31.295119698 ], [ 74.276061016000028, 31.295218775000023 ], [ 74.274788299000022, 31.295166255000026 ], [ 74.273543253000014, 31.29503693700002 ], [ 74.27243903599998, 31.29442204999998 ], [ 74.271314866000012, 31.293136322 ], [ 74.271019497, 31.292798501999982 ], [ 74.270331171, 31.291671571999984 ], [ 74.269340265999972, 31.290049257000021 ], [ 74.268708156, 31.289529161000019 ], [ 74.267687476, 31.28868935600002 ], [ 74.26535012, 31.288040041999977 ], [ 74.262891563999972, 31.28793947600002 ], [ 74.261914325000021, 31.287949469000012 ], [ 74.260068879000016, 31.287969469000018 ], [ 74.258038232999979, 31.28683034300002 ], [ 74.257072864, 31.286054686999989 ], [ 74.256250863999981, 31.284581714000012 ], [ 74.255852098, 31.283851633999973 ], [ 74.255219262000026, 31.282675601999983 ], [ 74.254935648000014, 31.281980041999986 ], [ 74.254179916, 31.280129795 ], [ 74.253747792000013, 31.278713776000018 ], [ 74.252878152999983, 31.278071201999978 ], [ 74.251708463, 31.277813632 ], [ 74.251065168000025, 31.277672307999978 ], [ 74.250320225999985, 31.27750789800001 ], [ 74.249369120999972, 31.276765504000025 ], [ 74.248567847, 31.276140068000018 ], [ 74.247762131, 31.274788092 ], [ 74.246988204, 31.273489456999982 ], [ 74.244599204, 31.271820945 ], [ 74.24286698100002, 31.271204289000025 ], [ 74.240833827000017, 31.270481099999984 ], [ 74.239323835, 31.268492912999989 ], [ 74.238061238, 31.266805585999975 ], [ 74.235871670999984, 31.264375659 ], [ 74.234578049, 31.263501148999978 ], [ 74.233334099, 31.262661449 ], [ 74.232585030999985, 31.262165704999973 ], [ 74.23216226400001, 31.261954933000027 ], [ 74.226456196000015, 31.259086922 ], [ 74.225853454, 31.25874391100001 ], [ 74.225051181000026, 31.258286691000023 ], [ 74.222418506999986, 31.256782647000023 ], [ 74.221982104, 31.256533325000021 ], [ 74.221541186000024, 31.256281420999983 ], [ 74.220902745999979, 31.256186522 ], [ 74.219870076, 31.256033023999976 ], [ 74.21881446499998, 31.255927073 ], [ 74.217472901, 31.256142402000023 ], [ 74.216956373000016, 31.256289260000017 ], [ 74.215809596999975, 31.256901270000014 ], [ 74.215500326999972, 31.257331610999984 ], [ 74.214957363, 31.25841671500001 ], [ 74.214414764000026, 31.259500184 ], [ 74.213869086999978, 31.260590005999973 ], [ 74.213667042, 31.261138290000019 ], [ 74.213350188, 31.261998654000024 ], [ 74.213116701999979, 31.262451571999975 ], [ 74.212525582000012, 31.263199481000015 ], [ 74.211907161, 31.263827736999986 ], [ 74.211612628000012, 31.26428539 ], [ 74.211359132999974, 31.264819456 ], [ 74.211066616999972, 31.265435663 ], [ 74.21072971000001, 31.265966231 ], [ 74.210336493, 31.266541464999989 ], [ 74.209774306999975, 31.267329282999981 ], [ 74.207685632999983, 31.269806297 ], [ 74.20731178, 31.27012033 ], [ 74.206030847000022, 31.271822852000014 ], [ 74.205513247999988, 31.273761679000017 ], [ 74.205089073000011, 31.275354295 ], [ 74.203421042, 31.2767371 ], [ 74.202257633999977, 31.277679679000016 ], [ 74.200876005, 31.279345337999985 ], [ 74.200612606999982, 31.279698823 ], [ 74.199041148999981, 31.281802648 ], [ 74.197986816000025, 31.283208791999982 ], [ 74.197401749, 31.285787103000018 ], [ 74.196946474000015, 31.287793662000013 ], [ 74.19594831400002, 31.289374255999974 ], [ 74.195245007999972, 31.290394576999972 ], [ 74.194539309, 31.291420080000023 ], [ 74.193855717000019, 31.291943278000019 ], [ 74.191084234000016, 31.294070757999975 ], [ 74.190472569, 31.294539379000014 ], [ 74.189705526000012, 31.294803801 ], [ 74.188370796000015, 31.295256221999978 ], [ 74.18788680900002, 31.29542027399998 ], [ 74.187058760000014, 31.295700952 ], [ 74.185848642999986, 31.295287124000026 ], [ 74.184178701, 31.294718064999984 ], [ 74.18303841300002, 31.294332226999984 ], [ 74.182009989, 31.293337641 ], [ 74.181396773000017, 31.292747282999983 ], [ 74.17966211800001, 31.29105180900001 ], [ 74.178942953999979, 31.290920875999973 ], [ 74.178381442999978, 31.290818652999974 ], [ 74.177337975, 31.290358164 ], [ 74.176904671999978, 31.289547629000026 ], [ 74.176676709999981, 31.289012866 ], [ 74.175912141000026, 31.287684668 ], [ 74.175668356000017, 31.287287386 ], [ 74.175069765999979, 31.287133418 ], [ 74.174379707000014, 31.286954158000015 ], [ 74.17353823000002, 31.286919995 ], [ 74.172853385999986, 31.286892640000019 ], [ 74.172199393000028, 31.286866181 ], [ 74.169756270999983, 31.286684417 ], [ 74.16919608, 31.286625373999982 ], [ 74.168595020999987, 31.28624991800001 ], [ 74.167990640000028, 31.285860636999985 ], [ 74.167684079000026, 31.285103575 ], [ 74.166359483, 31.284130006999987 ], [ 74.165068517, 31.283898400999988 ], [ 74.163914485000021, 31.284575551999978 ], [ 74.162386401999981, 31.285475857999984 ], [ 74.161395943, 31.286152872 ], [ 74.160391389999972, 31.286841198 ], [ 74.159415952000018, 31.288554503 ], [ 74.159270777000017, 31.289835294999989 ], [ 74.159270567000021, 31.291509776 ], [ 74.158985703999974, 31.291862791000028 ], [ 74.158670859999972, 31.292230685999982 ], [ 74.157119136, 31.292354403 ], [ 74.15566121400002, 31.292470483999978 ], [ 74.155195462, 31.292741396 ], [ 74.154769897, 31.292988935999972 ], [ 74.153247365000027, 31.294149274 ], [ 74.151706051000019, 31.295321785 ], [ 74.150053872, 31.296737324999981 ], [ 74.149563879000027, 31.297645407 ], [ 74.149525442000026, 31.298119902 ], [ 74.149493383999982, 31.298623758000019 ], [ 74.148359710000022, 31.29922581400001 ], [ 74.147620040999982, 31.299440043 ], [ 74.147047789, 31.299262758999987 ], [ 74.146240127, 31.299012542000014 ], [ 74.145245903999978, 31.298883000999979 ], [ 74.144667406, 31.298807626999974 ], [ 74.144010835000017, 31.298806527000011 ], [ 74.14328330799998, 31.299019654 ], [ 74.142102927, 31.299740967999981 ], [ 74.141601109000021, 31.300075407 ], [ 74.139446717999988, 31.301101930000016 ], [ 74.138668757, 31.301472029000024 ], [ 74.13798226900002, 31.301446925999983 ], [ 74.137480851000021, 31.301427989 ], [ 74.13610229, 31.300903388 ], [ 74.135315834999972, 31.300266898000018 ], [ 74.132622678000018, 31.298085916 ], [ 74.131564287, 31.297230324999987 ], [ 74.129946894, 31.295982584 ], [ 74.12915264999998, 31.295370131000027 ], [ 74.127419268999972, 31.293772736999983 ], [ 74.127714732000015, 31.292154996000022 ], [ 74.127849178000019, 31.290812535999976 ], [ 74.127985314999989, 31.289304924000021 ], [ 74.12785670400001, 31.287878972999977 ], [ 74.127315679, 31.286264442 ], [ 74.126848952999978, 31.284876838 ], [ 74.126720928, 31.284291677999988 ], [ 74.126447244000019, 31.283032417000015 ], [ 74.125736948, 31.279703585 ], [ 74.125476455000012, 31.278442166 ], [ 74.124396423, 31.276573644999985 ], [ 74.124000285000022, 31.275888228999975 ], [ 74.123234008, 31.275118787999986 ], [ 74.122719782, 31.274602137999977 ], [ 74.122131944999978, 31.274011738000013 ], [ 74.121526535999976, 31.273404573999983 ], [ 74.120337479, 31.272332394999978 ], [ 74.119904185999985, 31.271962444 ], [ 74.119221762999985, 31.271450888 ], [ 74.116101115, 31.269134219000023 ], [ 74.114744438, 31.268319776 ], [ 74.114058333, 31.267910839000024 ], [ 74.113472832000014, 31.267729659 ], [ 74.112002793999977, 31.267276131000017 ], [ 74.111226386, 31.267036598 ], [ 74.109919303000027, 31.266982481000014 ], [ 74.108658882999976, 31.267579045 ], [ 74.107406280000021, 31.268179208 ], [ 74.10668907500002, 31.269442675 ], [ 74.1057434, 31.271112174999985 ], [ 74.105905876, 31.271983223 ], [ 74.106413625000016, 31.273039588000017 ], [ 74.106771687, 31.273860308 ], [ 74.107142391000025, 31.274777793 ], [ 74.10689351000002, 31.276512986 ], [ 74.10677705400002, 31.277324920000012 ], [ 74.106538779, 31.27898617 ], [ 74.10469615300002, 31.279575790000024 ], [ 74.103213643, 31.280050174999985 ], [ 74.101766253999983, 31.279409967999982 ], [ 74.099218324, 31.278280783000014 ], [ 74.098476672, 31.278012633 ], [ 74.097329101000014, 31.277597720000017 ], [ 74.09673796300001, 31.277199332 ], [ 74.096066705, 31.276894218999985 ], [ 74.094294672999979, 31.276126520999981 ], [ 74.093006699999989, 31.275573026000018 ], [ 74.092100075000019, 31.275607800999978 ], [ 74.090372351999974, 31.275679737000019 ], [ 74.088929061999977, 31.275738779 ], [ 74.088612441, 31.276329853999982 ], [ 74.088012392, 31.277471779999985 ], [ 74.08812351, 31.278688704 ], [ 74.088353610000013, 31.281194388000017 ], [ 74.088400580999973, 31.281683353 ], [ 74.088783347, 31.282978774000014 ], [ 74.089358087, 31.284914797 ], [ 74.090245283, 31.28790333500001 ], [ 74.090577968, 31.289029104 ], [ 74.090622535000023, 31.289881229 ], [ 74.090677772, 31.290937369 ], [ 74.090768383000011, 31.29267121800001 ], [ 74.089729544000022, 31.293221233 ], [ 74.08872842, 31.293010369 ], [ 74.08791395999998, 31.292690283000013 ], [ 74.087136886, 31.29219047700002 ], [ 74.086276987000019, 31.291647176000026 ], [ 74.085857055000019, 31.291321558 ], [ 74.085342642, 31.290902427 ], [ 74.084114699999986, 31.289709801000015 ], [ 74.083290244000011, 31.288882549999983 ], [ 74.08262797499998, 31.287779028999978 ], [ 74.081500515000016, 31.285898421000013 ], [ 74.080620695, 31.284544091999976 ], [ 74.080162518, 31.283838673999981 ], [ 74.077306723, 31.278887054 ], [ 74.076813804999972, 31.278029289000017 ], [ 74.07627105, 31.277498302000026 ], [ 74.074742918000027, 31.275997276999988 ], [ 74.07386206000001, 31.275128524000024 ], [ 74.073146771999973, 31.275048672000025 ], [ 74.07207207, 31.274928778 ], [ 74.071485979999977, 31.275071490000016 ], [ 74.069692340000017, 31.275510156 ], [ 74.069087145000026, 31.275659695 ], [ 74.067913078, 31.276505930999974 ], [ 74.066290488, 31.277801388 ], [ 74.065608064, 31.280966691 ], [ 74.065451455000016, 31.281694859000027 ], [ 74.065224591, 31.282196135999982 ], [ 74.065091941999981, 31.282649957999979 ], [ 74.064856981999981, 31.283069207999972 ], [ 74.064607269000021, 31.283515788999978 ], [ 74.063964753, 31.284663432 ], [ 74.063605741, 31.285304931999974 ], [ 74.063182532999974, 31.286056643 ], [ 74.062616854, 31.28661867 ], [ 74.060521809000022, 31.288701273000015 ], [ 74.059947791000013, 31.288929677999988 ], [ 74.056155714999989, 31.289776607000022 ], [ 74.054969219999975, 31.290018175 ], [ 74.053805146, 31.290574349999986 ], [ 74.049769008, 31.292512018000025 ], [ 74.048339935, 31.293268549 ], [ 74.047397072000024, 31.294376398999987 ], [ 74.044253388000016, 31.298079928 ], [ 74.043747446999987, 31.298676509000018 ], [ 74.04332268600001, 31.299179358 ], [ 74.042718550000018, 31.300296106000019 ], [ 74.041727585999979, 31.302127923 ], [ 74.040128799, 31.304324284000018 ], [ 74.038090418000024, 31.307582567 ], [ 74.037698501000023, 31.308210937000013 ], [ 74.036925742, 31.308611953000025 ], [ 74.036040639000021, 31.309071269000015 ], [ 74.035714895000012, 31.309691933000011 ], [ 74.034661455, 31.311710278000021 ], [ 74.034258163, 31.313618717999987 ], [ 74.033902588999979, 31.315318472 ], [ 74.032707331999973, 31.316831834000027 ], [ 74.029610741999988, 31.320757145000016 ], [ 74.029342777000011, 31.321099466000021 ], [ 74.028944545, 31.321582539000019 ], [ 74.028665715999978, 31.321921359999976 ], [ 74.022254167000028, 31.329741647 ], [ 74.021139295000012, 31.331101264999972 ], [ 74.019936245999986, 31.332568396999989 ], [ 74.018884561999982, 31.334174163 ], [ 74.01816190400001, 31.335297799999978 ], [ 74.015301529, 31.339745364 ], [ 74.01452258, 31.340974652 ], [ 74.013861664999979, 31.342193572999975 ], [ 74.012585613999988, 31.344568687999981 ], [ 74.011931768000011, 31.345955679999975 ], [ 74.011000737000018, 31.347931368 ], [ 74.010081758000013, 31.349271405000025 ], [ 74.009342237, 31.350351169000021 ], [ 74.00500064, 31.356695194999986 ], [ 74.004303043, 31.357757317 ], [ 74.004061018000016, 31.358646728 ], [ 74.003635222000014, 31.360219686999983 ], [ 74.003526108000017, 31.36064406700001 ], [ 74.003509732, 31.361201714 ], [ 74.00348814900002, 31.361741634999987 ], [ 74.003434966999976, 31.363167772 ], [ 74.004102894000027, 31.364387029999989 ], [ 74.004959497000016, 31.365951680000023 ], [ 74.006288477999988, 31.366548653999985 ], [ 74.007558393000011, 31.367120951 ], [ 74.007984416, 31.367312363 ], [ 74.008497466, 31.367441051000014 ], [ 74.012362473, 31.368416577 ], [ 74.013731400999973, 31.368888452000022 ], [ 74.014493555, 31.36915776 ], [ 74.015638394, 31.369562289999976 ], [ 74.017159785999979, 31.370101020999982 ], [ 74.018265467, 31.371750841 ], [ 74.018649418, 31.372305009 ], [ 74.026837001, 31.36853333800002 ], [ 74.028060401, 31.36797162 ], [ 74.028896425000028, 31.367685325000025 ], [ 74.031394057999989, 31.366830016999984 ], [ 74.033368403, 31.366153860999987 ], [ 74.034574986, 31.365747417000023 ], [ 74.036064104, 31.36559483000002 ], [ 74.037104011, 31.365488923999976 ], [ 74.037618136999981, 31.365408800000012 ], [ 74.038858952, 31.365631539999981 ], [ 74.041123363, 31.366037495 ], [ 74.042030115999978, 31.366198751000013 ], [ 74.042813137, 31.366481099 ], [ 74.04323324500001, 31.366632573 ], [ 74.044072626, 31.366935222 ], [ 74.046924183999977, 31.367963383000017 ], [ 74.047458904, 31.368157269 ], [ 74.048287773000027, 31.368464406999976 ], [ 74.049143066, 31.368785041000024 ], [ 74.051182688999972, 31.369536348 ], [ 74.052406516000019, 31.369987152000022 ], [ 74.053221642999972, 31.370287409000014 ], [ 74.054135527000028, 31.370572955 ], [ 74.057433523999975, 31.371603425999979 ], [ 74.05785314000002, 31.371734536000019 ], [ 74.05924552, 31.372119913 ], [ 74.062363631999972, 31.372441003 ], [ 74.065776006000021, 31.372367141999973 ], [ 74.067030876, 31.37234257 ], [ 74.067575606, 31.372408195 ], [ 74.070437138999978, 31.372752928000011 ], [ 74.071657644000027, 31.372899964999988 ], [ 74.073193308999976, 31.374193360999982 ], [ 74.073827527999981, 31.376018675000012 ], [ 74.073354767000012, 31.377642063999986 ], [ 74.072379975999979, 31.380989667999984 ], [ 74.072323279999978, 31.38227905399998 ], [ 74.072250880000013, 31.383939629999986 ], [ 74.072273574, 31.384386904999985 ], [ 74.072390358, 31.386599422000018 ], [ 74.073568879, 31.387136127000019 ], [ 74.074158674999978, 31.387683704999972 ], [ 74.075192465999976, 31.388290078000011 ], [ 74.076586937, 31.389011669000013 ], [ 74.077402612000014, 31.389642891 ], [ 74.0783874, 31.390406945999985 ], [ 74.07944276500001, 31.391744793999976 ], [ 74.080106037, 31.392588513000021 ], [ 74.08035789600001, 31.393078539999976 ], [ 74.080893774, 31.39417307399998 ], [ 74.081200454, 31.394801105999989 ], [ 74.081440139999984, 31.395701804999987 ], [ 74.082053009, 31.398003416999984 ], [ 74.083426280000026, 31.400318083 ], [ 74.083748051999976, 31.400885045 ], [ 74.084579650000023, 31.403239234000011 ], [ 74.08366924500001, 31.405153972 ], [ 74.08211749100002, 31.405752065 ], [ 74.080583390000015, 31.405433612000024 ], [ 74.078069195000012, 31.404917356 ], [ 74.075608594000016, 31.404472089000024 ], [ 74.075182305, 31.404454390000012 ], [ 74.073661728, 31.40439203699998 ], [ 74.073179712000012, 31.404372217 ], [ 74.071860646, 31.404317935999984 ], [ 74.070120805999977, 31.405504341999972 ], [ 74.069423049000022, 31.407199665 ], [ 74.069520450000027, 31.408516554000016 ], [ 74.069638538999982, 31.410089726000024 ], [ 74.070671079000022, 31.411307512 ], [ 74.071977804000028, 31.412709162999988 ], [ 74.072243161000017, 31.413256561000026 ], [ 74.072773347, 31.414350276 ], [ 74.072927827, 31.415122735000011 ], [ 74.073047133999978, 31.416185109000025 ], [ 74.072908257, 31.417400203 ], [ 74.073111418, 31.417801474999976 ], [ 74.073400301, 31.41816432600001 ], [ 74.073801693, 31.41859186 ], [ 74.074414752, 31.418782546999978 ], [ 74.074833077, 31.418897491999985 ], [ 74.07528844, 31.419022668000025 ], [ 74.075738297999976, 31.419309193 ], [ 74.076477968, 31.419790453000019 ], [ 74.077075470000011, 31.420224381000025 ], [ 74.07764845600002, 31.420682574000011 ], [ 74.078067852, 31.421115401 ], [ 74.078390425, 31.421861437000018 ], [ 74.07836417599998, 31.422323082999981 ], [ 74.078288305, 31.423639469000022 ], [ 74.078318922, 31.425186478 ], [ 74.078639974999987, 31.425928754999973 ], [ 74.078967138999985, 31.426217771999973 ], [ 74.081281187, 31.42673543 ], [ 74.083590430000015, 31.427183615999979 ], [ 74.084462261999988, 31.427354271000013 ], [ 74.085332768, 31.428022818999978 ], [ 74.085667283000021, 31.428491034 ], [ 74.085956263000014, 31.428918168999985 ], [ 74.086641875, 31.429933484 ], [ 74.087020638000013, 31.430507315 ], [ 74.08720809, 31.431078512999989 ], [ 74.087814284, 31.432926662999989 ], [ 74.088041574999977, 31.433623 ], [ 74.08852019, 31.434917666 ], [ 74.08899153599998, 31.435464554000021 ], [ 74.089270782000028, 31.435788559 ], [ 74.090019559999973, 31.436498329000017 ], [ 74.090784166999981, 31.436915144000011 ], [ 74.091361007999978, 31.437229601000013 ], [ 74.092256162000012, 31.438810327 ], [ 74.092689706999977, 31.439998317 ], [ 74.092816213999981, 31.440621277999981 ], [ 74.093055296999978, 31.441643882999983 ], [ 74.093879824999988, 31.44328176 ], [ 74.094628750000027, 31.44422868800001 ], [ 74.095426358, 31.444628681999973 ], [ 74.096971864000011, 31.44538179 ], [ 74.098220492999985, 31.445796187999974 ], [ 74.099462220000021, 31.446208544 ], [ 74.100251672000013, 31.446295952000014 ], [ 74.100775144000011, 31.446353912 ], [ 74.103397257999973, 31.446644236 ], [ 74.104443216999982, 31.446760047 ], [ 74.105944088, 31.446822750000024 ], [ 74.107442162999973, 31.446885337000026 ], [ 74.110168152000028, 31.447012137 ], [ 74.112498570000014, 31.447148839000022 ], [ 74.113912256999981, 31.447239485000011 ], [ 74.115291343000024, 31.447740244999977 ], [ 74.115756535, 31.447909158000016 ], [ 74.116798486999983, 31.448582553 ], [ 74.117396387999975, 31.448968966999985 ], [ 74.119470557999989, 31.450351689 ], [ 74.119977757000015, 31.450699383000028 ], [ 74.120827858999974, 31.451212742 ], [ 74.121475590999978, 31.451613495 ], [ 74.122152063999977, 31.451982165 ], [ 74.122812469, 31.452010890999986 ], [ 74.123501393000026, 31.452090801999987 ], [ 74.124703559000011, 31.451722413000027 ], [ 74.125172748000011, 31.451091796000014 ], [ 74.124910430999989, 31.44871858 ], [ 74.124423741999976, 31.447829836999972 ], [ 74.124117024999975, 31.447273253999981 ], [ 74.123381291999976, 31.445938063000028 ], [ 74.123141206000014, 31.445101646000012 ], [ 74.122892127, 31.444178869999973 ], [ 74.123028428, 31.442672889999983 ], [ 74.123147975999984, 31.44135144400002 ], [ 74.123389296000028, 31.440751631000012 ], [ 74.123994019, 31.439301828999987 ], [ 74.125395394, 31.437689524 ], [ 74.125835278000011, 31.437185081 ], [ 74.127159391000021, 31.435518882 ], [ 74.127129807000017, 31.43361762 ], [ 74.126316716000019, 31.432503188999988 ], [ 74.125343434, 31.432168943000022 ], [ 74.123965731999988, 31.43236060800001 ], [ 74.122862806, 31.433627707000028 ], [ 74.122463928, 31.434149038999976 ], [ 74.121107001999974, 31.435715416 ], [ 74.120225080000012, 31.43586754 ], [ 74.119732543, 31.435748486000023 ], [ 74.119127629, 31.435510339000018 ], [ 74.118400236000014, 31.434292847 ], [ 74.11825195900002, 31.433508537000023 ], [ 74.118033528000012, 31.432353485000021 ], [ 74.117868204, 31.431479272 ], [ 74.118147188000023, 31.430575340000019 ], [ 74.11857623100002, 31.429184871000018 ], [ 74.119503322000014, 31.428322254000022 ], [ 74.120564834, 31.427372693999985 ], [ 74.121385583, 31.426794475 ], [ 74.122365149000018, 31.426133890000017 ], [ 74.123156135999977, 31.425653652 ], [ 74.123917850999987, 31.425487267999983 ], [ 74.125649196999973, 31.425109002 ], [ 74.127088141, 31.424970735999977 ], [ 74.128128974, 31.424870683999984 ], [ 74.128684718999978, 31.425033158000019 ], [ 74.129491800999972, 31.425269110999977 ], [ 74.130492563000018, 31.426142654999978 ], [ 74.130832145, 31.426438185 ], [ 74.131265417, 31.426814552 ], [ 74.13189014, 31.427326796999978 ], [ 74.132240492, 31.427613650000012 ], [ 74.132782283999973, 31.428057258000024 ], [ 74.134080894000022, 31.428983357999982 ], [ 74.135312481000028, 31.42906781 ], [ 74.135916989, 31.428988678 ], [ 74.13681010099998, 31.428871554000011 ], [ 74.137217885999974, 31.429182283999978 ], [ 74.137625671000023, 31.430162446999987 ], [ 74.13814004, 31.431573747000016 ], [ 74.138142389999985, 31.434017787000016 ], [ 74.137351736000028, 31.435196925000014 ], [ 74.137054294999984, 31.435561262000022 ], [ 74.13670779, 31.435980528000016 ], [ 74.136622955, 31.437405925 ], [ 74.137079187999973, 31.439898081000024 ], [ 74.13789220000001, 31.440385299000013 ], [ 74.138761983, 31.440907216000028 ], [ 74.140731044, 31.442097581999974 ], [ 74.143065127999989, 31.445609096 ], [ 74.143746985, 31.44757056200001 ], [ 74.144432849, 31.449540626999976 ], [ 74.144774671999983, 31.450518654 ], [ 74.145029361000013, 31.451130775000024 ], [ 74.145206214999973, 31.451529606 ], [ 74.145720728000015, 31.452690021000024 ], [ 74.146206198000016, 31.453330752999989 ], [ 74.146556163000014, 31.453792642 ], [ 74.147378515000014, 31.454877996999983 ], [ 74.148420929999986, 31.455680292000011 ], [ 74.14970618000001, 31.455853059 ], [ 74.153873964000013, 31.456412688 ], [ 74.156463911, 31.456987234999986 ], [ 74.160289826, 31.457580172 ], [ 74.161764268000013, 31.458182414000021 ], [ 74.162855697999987, 31.458435882 ], [ 74.163533826999981, 31.458622656999978 ], [ 74.164977399, 31.459184934 ], [ 74.165792194, 31.459951613999976 ], [ 74.16618474500001, 31.460575754 ], [ 74.166706246999979, 31.461457081999981 ], [ 74.167178700000022, 31.462276418999977 ], [ 74.169306897000013, 31.464331311000024 ], [ 74.171056245999978, 31.464769274999981 ], [ 74.172693919999972, 31.465239259999976 ], [ 74.173986520000028, 31.466024044999983 ], [ 74.174457229999973, 31.466324929999985 ], [ 74.175490677000028, 31.466958571000021 ], [ 74.175921136999989, 31.46740029 ], [ 74.176280185999985, 31.467654664 ], [ 74.176586478, 31.467988330000026 ], [ 74.178039270999989, 31.469563917000016 ], [ 74.178682392999974, 31.470249567 ], [ 74.179124675000025, 31.470803042999989 ], [ 74.179710957999987, 31.471809520000022 ], [ 74.180147909000027, 31.472612765 ], [ 74.180575050000016, 31.473548457999982 ], [ 74.180806725000025, 31.474384891 ], [ 74.180715718999977, 31.474872775999984 ], [ 74.180398462000028, 31.475179794999974 ], [ 74.17938117, 31.475648444 ], [ 74.178737500000011, 31.475833357 ], [ 74.177070319999984, 31.476312297 ], [ 74.175741556999981, 31.477021106999985 ], [ 74.175264503999983, 31.477392612000017 ], [ 74.174470198, 31.478055637000011 ], [ 74.173617658000012, 31.479640959 ], [ 74.174020278, 31.480631415 ], [ 74.175421503, 31.482348259 ], [ 74.177617166, 31.484942381999986 ], [ 74.178654377999976, 31.486021112 ], [ 74.179260075, 31.486651204 ], [ 74.179710132000025, 31.487306247 ], [ 74.180153727, 31.487951883999983 ], [ 74.180827567999984, 31.488938218999976 ], [ 74.181176755000024, 31.489706973000011 ], [ 74.181880168000021, 31.49120231400002 ], [ 74.182228994000013, 31.492027673 ], [ 74.182378587000017, 31.492920078 ], [ 74.182974678, 31.496493692 ], [ 74.18321635, 31.498455590999981 ], [ 74.183369298, 31.499693483999977 ], [ 74.182980242999975, 31.500835107 ], [ 74.181239414, 31.502740338000024 ], [ 74.180236587000024, 31.503304436 ], [ 74.179000377000023, 31.503999813 ], [ 74.178368289, 31.504809243000011 ], [ 74.178039722, 31.505229994999979 ], [ 74.177692508, 31.506169705 ], [ 74.17736222100001, 31.507063119 ], [ 74.176988355, 31.508069004 ], [ 74.177002344000016, 31.508554796 ], [ 74.177112314999988, 31.509428205 ], [ 74.177706478, 31.510590415000024 ], [ 74.179555998000012, 31.511898291000023 ], [ 74.181194823, 31.511747322000019 ], [ 74.18464752, 31.511426781000011 ], [ 74.1859432, 31.511427229999981 ], [ 74.187084017000018, 31.511428292 ], [ 74.187550666999982, 31.511428747000025 ], [ 74.188862415000017, 31.511430675999975 ], [ 74.191308420999974, 31.512210442000026 ], [ 74.192047839, 31.512687304999986 ], [ 74.192409657999974, 31.512920649000023 ], [ 74.193176349, 31.513435132999973 ], [ 74.193468345999975, 31.513757280999982 ], [ 74.19488770800001, 31.515339859 ], [ 74.195742118999988, 31.516320683 ], [ 74.195857428000011, 31.517065646 ], [ 74.195826023, 31.517604795000011 ], [ 74.195877919999987, 31.518384517000015 ], [ 74.195707917, 31.519657253999981 ], [ 74.195607516999985, 31.52026216500002 ], [ 74.195437874999982, 31.521421927 ], [ 74.195131265999976, 31.52274461899998 ], [ 74.195771099000012, 31.524589946 ], [ 74.197983447000013, 31.525389701999984 ], [ 74.198930334000011, 31.525731028999985 ], [ 74.199850941000022, 31.526027848000012 ], [ 74.20065137, 31.526532583 ], [ 74.201283106, 31.526930902 ], [ 74.201872961, 31.527568119000023 ], [ 74.202179425999987, 31.528578923999987 ], [ 74.201928539999983, 31.529581447 ], [ 74.20144374, 31.530149282000025 ], [ 74.199985164999987, 31.531862739000019 ], [ 74.198641081, 31.533936402 ], [ 74.198766057, 31.534915937999983 ], [ 74.199092771999972, 31.535599844999979 ], [ 74.199689251, 31.536225527 ], [ 74.200524884, 31.536639980000018 ], [ 74.200971763999974, 31.536820643 ], [ 74.201627282, 31.536796317999972 ], [ 74.20254064, 31.536762423000027 ], [ 74.20315277200001, 31.536739695999984 ], [ 74.203831349999973, 31.53685323000002 ], [ 74.205523267999979, 31.537143539999988 ], [ 74.205958334, 31.537091557999986 ], [ 74.206652264000013, 31.537559276000025 ], [ 74.207110891000013, 31.537757168999974 ], [ 74.207533769, 31.538014605 ], [ 74.20960541300002, 31.53927576000001 ], [ 74.210138547999975, 31.539601235000021 ], [ 74.210762048, 31.540357174 ], [ 74.211376578, 31.541157085 ], [ 74.211884081999983, 31.541978836999988 ], [ 74.212299953000013, 31.542653923999978 ], [ 74.212338730999988, 31.543381219000025 ], [ 74.21234941900002, 31.544059897000011 ], [ 74.212682647, 31.545788003999974 ], [ 74.213409501, 31.546529528 ], [ 74.213859814999978, 31.546986552000021 ], [ 74.214205975000027, 31.547424552 ], [ 74.214831026000013, 31.548342741999988 ], [ 74.214959103000012, 31.548822176999977 ], [ 74.214726096, 31.549571349000018 ], [ 74.214232910000021, 31.550017755 ], [ 74.21405022099998, 31.550901587999988 ], [ 74.214400925, 31.551582306 ], [ 74.214783120999982, 31.551818067 ], [ 74.215179669, 31.552050732 ], [ 74.215931322000017, 31.552204358999973 ], [ 74.216550666999979, 31.552330944 ], [ 74.217382586999975, 31.552549059 ], [ 74.218582028000014, 31.552884222999978 ], [ 74.219096623999974, 31.55302801900001 ], [ 74.21972524, 31.553200302 ], [ 74.221428967, 31.553660700000023 ], [ 74.222888092, 31.554499421 ], [ 74.223781636000012, 31.555437014 ], [ 74.224065358000018, 31.555768853000018 ], [ 74.224613111999986, 31.556920219 ], [ 74.225077909, 31.558246226 ], [ 74.225361697999972, 31.559181063999972 ], [ 74.226219593999986, 31.560121740999989 ], [ 74.227379371999973, 31.560591343999988 ], [ 74.228038154999979, 31.560530841 ], [ 74.228536861, 31.560484552999981 ], [ 74.229407974000026, 31.560333624 ], [ 74.230559828000025, 31.56013305099998 ], [ 74.23159904900001, 31.560198652999986 ], [ 74.232878632, 31.561440389999973 ], [ 74.233158530000026, 31.562202182000021 ], [ 74.233303754000019, 31.56262942799998 ], [ 74.233948823999981, 31.564400837999983 ], [ 74.234856218, 31.564700207999977 ], [ 74.235967718999973, 31.564861529999973 ], [ 74.236983684999984, 31.564578041 ], [ 74.23806835900001, 31.563997224 ], [ 74.2387999, 31.563605709 ], [ 74.240068214000019, 31.562951997000027 ], [ 74.241448422000019, 31.563010769000016 ], [ 74.243313452, 31.565112533999979 ], [ 74.243688325999983, 31.566004927999984 ], [ 74.24432599, 31.56751049899998 ], [ 74.245632463999982, 31.569686188 ], [ 74.245693695999989, 31.571106042999986 ], [ 74.245726150999985, 31.571956186000023 ], [ 74.245762790000015, 31.572840843999984 ], [ 74.245390874, 31.57426221999998 ], [ 74.244544752000024, 31.57555199799998 ], [ 74.24391145200002, 31.576230083999974 ], [ 74.243049821, 31.577137564 ], [ 74.242335186, 31.578740227000026 ], [ 74.242159157, 31.579134274000012 ], [ 74.241953103000014, 31.579596655999978 ], [ 74.241327012999989, 31.581963326999983 ], [ 74.241759132000027, 31.583677008999985 ], [ 74.242210144000012, 31.585231806000024 ], [ 74.243125419000023, 31.586314811000022 ], [ 74.244905291, 31.588423955 ], [ 74.246328861, 31.590116512 ], [ 74.247223670999972, 31.591219599999988 ], [ 74.248062355, 31.592343261999986 ], [ 74.248502329000019, 31.593359522000014 ], [ 74.248111914, 31.595394613 ], [ 74.247759256, 31.596027633 ], [ 74.246119554000018, 31.599004121 ], [ 74.245896927, 31.599401087999979 ], [ 74.245569691000014, 31.599855939 ], [ 74.243906243000026, 31.602152862000025 ], [ 74.243353225000021, 31.602913601000012 ], [ 74.242983262999985, 31.60338035 ], [ 74.242543618000013, 31.603942185999983 ], [ 74.240140342000018, 31.60700012 ], [ 74.239441897, 31.607957794000015 ], [ 74.237550843, 31.610558465 ], [ 74.236908928999981, 31.611440292 ], [ 74.23658952400001, 31.612531427000022 ], [ 74.236592584, 31.613542253999981 ], [ 74.237042312000028, 31.614321707999977 ], [ 74.238198614, 31.614962741999989 ], [ 74.239878422, 31.614854553999976 ], [ 74.240403382000011, 31.614819063000027 ], [ 74.245604871000012, 31.613976525 ], [ 74.246407885999986, 31.613877065999986 ], [ 74.247559067999987, 31.613729644999978 ], [ 74.249320774000012, 31.613504443000011 ], [ 74.25000393, 31.613417205000019 ], [ 74.251072882000017, 31.613280649999979 ], [ 74.253162369999984, 31.613282154999979 ], [ 74.254742737000015, 31.614299870000025 ], [ 74.255550142, 31.614821446 ], [ 74.256705434000025, 31.617814047000024 ], [ 74.256955296, 31.62158107 ], [ 74.257028349, 31.622731101999989 ], [ 74.257814328, 31.623720616000014 ], [ 74.259970818999989, 31.625138691000018 ], [ 74.261248222, 31.625812845999974 ], [ 74.262100622999981, 31.626262704 ], [ 74.262573096999972, 31.626512666999986 ], [ 74.263209069000027, 31.626975706999986 ], [ 74.264676764, 31.628044202000012 ], [ 74.265178223000021, 31.62844099900002 ], [ 74.266526638000016, 31.629504919999988 ], [ 74.266453618000014, 31.631597665000015 ], [ 74.266019519, 31.632966171000021 ], [ 74.265851891000011, 31.633502395999983 ], [ 74.265158723000013, 31.634453431999987 ], [ 74.264891235999983, 31.634820428000012 ], [ 74.26441971600002, 31.635633354 ], [ 74.264236396, 31.636041423 ], [ 74.263779984, 31.637060153 ], [ 74.264706099000023, 31.640065938000021 ], [ 74.266292771999986, 31.641043041999978 ], [ 74.266992249999987, 31.641453080000019 ], [ 74.267850440000018, 31.641782400000011 ], [ 74.269899509000027, 31.642571926000016 ], [ 74.270446789, 31.642794262 ], [ 74.271340388999988, 31.643361539000011 ], [ 74.272212864999972, 31.643916029000025 ], [ 74.273771608, 31.645412135000015 ], [ 74.274270553, 31.646032251 ], [ 74.27525254699998, 31.647252329000025 ], [ 74.278119847000028, 31.649851144000024 ], [ 74.278558859999976, 31.650242516999981 ], [ 74.279908436000028, 31.651536310999973 ], [ 74.28062387, 31.653448744 ], [ 74.281051595, 31.654674177 ], [ 74.281203378999976, 31.655253918000028 ], [ 74.281693744, 31.657088906000013 ], [ 74.282559559, 31.659701375 ], [ 74.284279443, 31.661672211999985 ], [ 74.285051502999977, 31.662321097000017 ], [ 74.286255815, 31.663333538000018 ], [ 74.289234810999972, 31.665838467000015 ], [ 74.289782143000025, 31.666298615000017 ], [ 74.291837964000024, 31.667957618 ], [ 74.292659453, 31.668522059 ], [ 74.293491393000011, 31.669070756999986 ], [ 74.294185105, 31.669238356999983 ], [ 74.294776832000025, 31.669378224000013 ], [ 74.295817164000027, 31.669176403 ], [ 74.296556367, 31.669031986999983 ], [ 74.29785960800001, 31.669079375000024 ], [ 74.299688358000026, 31.670705011 ], [ 74.300783696999986, 31.671587084 ], [ 74.301507926, 31.672165810000024 ], [ 74.302171642000019, 31.672692335000022 ], [ 74.30288843, 31.673259826 ], [ 74.304048599999987, 31.673729439999988 ], [ 74.304903976, 31.673763185999974 ], [ 74.305345776000024, 31.67377826500001 ], [ 74.306112492000011, 31.673553152000011 ], [ 74.307627196999988, 31.673090194999986 ], [ 74.30979787299998, 31.672144806 ], [ 74.310613364, 31.671753400999989 ], [ 74.311041550000027, 31.671434587000022 ], [ 74.312234097999976, 31.670438241999989 ], [ 74.313345533000017, 31.669316777 ], [ 74.314360734, 31.668292414 ], [ 74.31490635900002, 31.66733346 ], [ 74.315404421999972, 31.666458851000016 ], [ 74.315985001, 31.665428593 ], [ 74.316341423999972, 31.664042533999975 ], [ 74.316591194000011, 31.663070128000015 ], [ 74.31681407100001, 31.662115911 ], [ 74.316914838, 31.661128389999988 ], [ 74.317261224999982, 31.65764893 ], [ 74.31733749, 31.656869864999976 ], [ 74.317936781000014, 31.65023849 ], [ 74.318068556000014, 31.648846747999983 ], [ 74.320066777000022, 31.646928044 ], [ 74.320500046, 31.646616451 ], [ 74.322379980999983, 31.646132624000018 ], [ 74.322985263000021, 31.646106939999981 ], [ 74.325493768, 31.645996476999983 ], [ 74.329486492, 31.645457514999976 ], [ 74.331251470999973, 31.64521795600001 ], [ 74.332463314999984, 31.645920452999974 ], [ 74.334130231000017, 31.64688401799998 ], [ 74.335600930999988, 31.647915685999976 ], [ 74.335933931999989, 31.648982249000028 ], [ 74.336579197999981, 31.651011230999984 ], [ 74.337369458000012, 31.653100462 ], [ 74.337662453, 31.653645338999979 ], [ 74.338084706000018, 31.654339015 ], [ 74.338500287999977, 31.655026088999989 ], [ 74.33960928099998, 31.65635592000001 ], [ 74.340460154000027, 31.656752403999974 ], [ 74.341778326, 31.657424236 ], [ 74.343462493, 31.657938097999988 ], [ 74.344364795999979, 31.658211285999982 ], [ 74.344839921000016, 31.658398808000015 ], [ 74.345831643, 31.658862657999975 ], [ 74.347256432, 31.660340968000014 ], [ 74.347931005000021, 31.661842515999979 ], [ 74.348060314, 31.662792017000015 ], [ 74.347261507999974, 31.664075479000019 ], [ 74.346145064999973, 31.664911728 ], [ 74.344840512000019, 31.665540308 ], [ 74.343618911000021, 31.665685098999973 ], [ 74.343190756000013, 31.665742705000014 ], [ 74.340962669000021, 31.666163587000028 ], [ 74.340630095, 31.667250115 ], [ 74.341662586999973, 31.668197640000017 ], [ 74.343200353999976, 31.669121308 ], [ 74.344044469999972, 31.669209401999979 ], [ 74.345018488999983, 31.669307189 ], [ 74.346401496999988, 31.669620591000012 ], [ 74.347255421999989, 31.670363468 ], [ 74.347586219, 31.670698782999978 ], [ 74.348129646000018, 31.671268299000019 ], [ 74.348718314999985, 31.671498695000025 ], [ 74.349230612999975, 31.671508287 ], [ 74.35026781900001, 31.670622775000027 ], [ 74.350227672000017, 31.668764861 ], [ 74.350204116999976, 31.667732218000026 ], [ 74.350194394000027, 31.66717279 ], [ 74.350171470000021, 31.665944169 ], [ 74.350263813000026, 31.665071048000016 ], [ 74.350694810999983, 31.664710238999987 ], [ 74.351141449000011, 31.664459576000013 ], [ 74.351303644999973, 31.663750914 ], [ 74.351440013, 31.663160683 ], [ 74.351091499, 31.662127727999973 ], [ 74.350892741, 31.661525402999985 ], [ 74.350832051, 31.660702012 ], [ 74.351198092, 31.66011812 ], [ 74.352185884, 31.659952493999981 ], [ 74.352908946000014, 31.659865911 ], [ 74.353823616, 31.659931669 ], [ 74.355368812999984, 31.660826274999977 ], [ 74.356125287999987, 31.661631124 ], [ 74.356491283000025, 31.662125924 ], [ 74.357379101, 31.663325225 ], [ 74.357892074, 31.663995544999977 ], [ 74.358530379, 31.664405999 ], [ 74.359558027999981, 31.664586471 ], [ 74.360277145, 31.664605256000016 ], [ 74.361307760999978, 31.665006053000013 ], [ 74.361602087, 31.665600856000026 ], [ 74.361727434999978, 31.666159360999984 ], [ 74.36173667700001, 31.666813719 ], [ 74.361741817999985, 31.667285687 ], [ 74.361822358999973, 31.667791411 ], [ 74.36260482199998, 31.669016667 ], [ 74.364354677, 31.66953821300001 ], [ 74.36610077, 31.669823921999978 ], [ 74.36683250599998, 31.670171024000012 ], [ 74.367516651000017, 31.670888674000025 ], [ 74.367662439000014, 31.671649968 ], [ 74.367839767000021, 31.672449289999975 ], [ 74.368536160000019, 31.67268900900001 ], [ 74.369149072000027, 31.672701417999974 ], [ 74.370092156999988, 31.672290358999987 ], [ 74.370588153000028, 31.67082942899998 ], [ 74.371114724999984, 31.669284756000025 ], [ 74.372689091999973, 31.667860929000028 ], [ 74.373427338, 31.667410424000025 ], [ 74.373915888999989, 31.667112294 ], [ 74.37528676, 31.666260481999984 ], [ 74.378669881, 31.663582792 ], [ 74.379105453000022, 31.662233693000019 ], [ 74.379154018, 31.660285382999973 ], [ 74.37903623699998, 31.659501964000015 ], [ 74.379099642000028, 31.658230176000018 ], [ 74.380390272, 31.65676928 ], [ 74.381251513999985, 31.656216235999977 ], [ 74.382234438000012, 31.655586029 ], [ 74.384503687, 31.654910409000024 ], [ 74.386641054999984, 31.654928929999983 ], [ 74.388294244, 31.65499766 ], [ 74.389688369999988, 31.655040816 ], [ 74.3909301, 31.654988627000023 ], [ 74.39157745, 31.654650458 ], [ 74.392243716, 31.653490114000022 ], [ 74.392650896000021, 31.652739544999974 ], [ 74.393600176, 31.650992584 ], [ 74.394350270000018, 31.650509700999976 ], [ 74.396419749000017, 31.650635538000017 ], [ 74.396926157999985, 31.651054676 ], [ 74.398214973999984, 31.651819081999975 ], [ 74.399095497000019, 31.651840242 ], [ 74.400029416, 31.651332518 ], [ 74.40080939500001, 31.650308172999985 ], [ 74.40110605000001, 31.649660985000025 ], [ 74.401205778000019, 31.648241795 ], [ 74.401305643, 31.647457294 ], [ 74.401502161999986, 31.646399706000011 ], [ 74.401774935, 31.645531794000021 ], [ 74.402877982, 31.644325233000018 ], [ 74.403807271, 31.64374405 ], [ 74.404314091, 31.643379896999988 ], [ 74.406398621999983, 31.642852553000012 ], [ 74.408052866999981, 31.642784188 ], [ 74.410344380000026, 31.642940067999973 ], [ 74.411220562999972, 31.643005945000027 ], [ 74.412683255, 31.643897841000012 ], [ 74.4129916, 31.644412558 ], [ 74.413191321, 31.644858725 ], [ 74.41318176599998, 31.645299427999987 ], [ 74.412980512, 31.645860759000016 ], [ 74.412718840000025, 31.646323122000013 ], [ 74.412427028000025, 31.646742167000014 ], [ 74.412142252000024, 31.647075756999982 ], [ 74.411309453, 31.648152109000023 ], [ 74.411109978000013, 31.649298929999986 ], [ 74.411597272, 31.650114601999974 ], [ 74.41315964, 31.651299247999987 ], [ 74.41413959, 31.651507477 ], [ 74.414764143000014, 31.651652641 ], [ 74.415428881000025, 31.65188608699998 ], [ 74.418720759999985, 31.653141870000013 ], [ 74.420240284999977, 31.654412977999982 ], [ 74.421383307999974, 31.655378179000024 ], [ 74.421792365999977, 31.656020763000015 ], [ 74.424027062, 31.659483372000011 ], [ 74.428641572, 31.66493833200002 ], [ 74.429313076000028, 31.665636629 ], [ 74.429939642000022, 31.666288196999972 ], [ 74.431649412000013, 31.667276379999976 ], [ 74.432946506, 31.66752779 ], [ 74.433784614999979, 31.667689404999976 ], [ 74.434204893000015, 31.667770448 ], [ 74.434828926000023, 31.667868484999985 ], [ 74.435423824999987, 31.667909916999974 ], [ 74.436664627000027, 31.667994435000026 ], [ 74.437522253999987, 31.668052214 ], [ 74.438291089000018, 31.668070141999976 ], [ 74.439506355, 31.66809744 ], [ 74.440642664999984, 31.66826347 ], [ 74.442035911, 31.668487987999981 ], [ 74.442749521, 31.668602985 ], [ 74.443886981, 31.668987534999985 ], [ 74.44459767799998, 31.669227805999981 ], [ 74.446181136, 31.669988385000011 ], [ 74.447281703999977, 31.671265252000012 ], [ 74.447487572, 31.671686852 ], [ 74.447763612000017, 31.672252209000021 ], [ 74.448622624, 31.674011425 ], [ 74.448876429, 31.674664141999983 ], [ 74.449130861000015, 31.67617534599998 ], [ 74.449271024999973, 31.677007845 ], [ 74.449271024999973, 31.677719579999973 ], [ 74.448911733999978, 31.678432206000025 ], [ 74.44754323799998, 31.678862560000027 ], [ 74.446651292000013, 31.678977874999987 ], [ 74.445422279000013, 31.679142298999977 ], [ 74.44428201300002, 31.679324542000018 ], [ 74.441196848, 31.680036143 ], [ 74.440196726000011, 31.680804584999976 ], [ 74.438803359000019, 31.681876495999973 ], [ 74.437586970999973, 31.682810825999979 ], [ 74.437256278, 31.683908291000023 ], [ 74.4371104, 31.684392440000011 ], [ 74.437115482000024, 31.685352497999986 ], [ 74.437119676, 31.68614428799998 ], [ 74.43711621, 31.686795835999988 ], [ 74.437093426999979, 31.687528424999982 ], [ 74.436577135, 31.688080626999977 ], [ 74.436140933, 31.688352208000026 ], [ 74.435345778999988, 31.688423726 ], [ 74.433590940999977, 31.68858149 ], [ 74.432989615999986, 31.688512865 ], [ 74.432526698, 31.688460131999989 ], [ 74.432044639000026, 31.688485483000022 ], [ 74.431013268000015, 31.689186850999988 ], [ 74.430855738, 31.689924994000023 ], [ 74.43085177, 31.690577089999977 ], [ 74.430879088999973, 31.691267883000023 ], [ 74.43163302, 31.692163833 ], [ 74.432029886, 31.692608027 ], [ 74.433468222999977, 31.693901754000024 ], [ 74.433832493000011, 31.694229378999978 ], [ 74.436343599999987, 31.696140714000023 ], [ 74.436893267000016, 31.696555901000011 ], [ 74.437630703000025, 31.696918967999977 ], [ 74.438151285, 31.697154916999978 ], [ 74.438608612999985, 31.697362247 ], [ 74.439196513000013, 31.697482673000025 ], [ 74.439627404000021, 31.697572298000011 ], [ 74.440109329, 31.697658303000026 ], [ 74.440771515, 31.697580129000016 ], [ 74.441290851000019, 31.697230667999975 ], [ 74.441430368999988, 31.696805007000023 ], [ 74.441667833999986, 31.696080537 ], [ 74.441744498999981, 31.695017192000023 ], [ 74.441898915000024, 31.694033135999973 ], [ 74.441988644, 31.693458146000012 ], [ 74.442213048999974, 31.692813968999985 ], [ 74.442767022, 31.692388917000017 ], [ 74.443416088, 31.691957087 ], [ 74.444013509, 31.691712198 ], [ 74.445549246999974, 31.691306731 ], [ 74.446838415, 31.691266234000011 ], [ 74.447609514000021, 31.691244375999986 ], [ 74.449668804, 31.691496868 ], [ 74.450621290000015, 31.691650219 ], [ 74.451880029999984, 31.692351815999984 ], [ 74.45278966, 31.692858828 ], [ 74.453572947999987, 31.693508025000028 ], [ 74.454852427, 31.694568538 ], [ 74.455967207000015, 31.696476286 ], [ 74.456516865000026, 31.697414435999974 ], [ 74.456879222999987, 31.698022797000021 ], [ 74.457738380000023, 31.699445309 ], [ 74.458469653, 31.70065748899998 ], [ 74.459470961000022, 31.701550371 ], [ 74.461068544999989, 31.70195006 ], [ 74.461540029999981, 31.701986864999981 ], [ 74.462981097000011, 31.702099444999988 ], [ 74.464531301000022, 31.70264901500002 ], [ 74.466252608, 31.703259216999982 ], [ 74.467016993000016, 31.703566282999986 ], [ 74.469193814999983, 31.704440751 ], [ 74.469920662999982, 31.70475869400002 ], [ 74.472053105999976, 31.705854204 ], [ 74.473523011999987, 31.706608932 ], [ 74.474653636000028, 31.707920888 ], [ 74.476417415000014, 31.709960421 ], [ 74.477058166, 31.710703739999985 ], [ 74.479948246, 31.714522927000019 ], [ 74.480711457999973, 31.715529200999981 ], [ 74.48179251800002, 31.716277615000024 ], [ 74.483699349, 31.716609446 ], [ 74.487514724999983, 31.716620752999972 ], [ 74.520376140999986, 31.716573116 ], [ 74.520597771999974, 31.716157227999986 ], [ 74.530226685, 31.698088677999976 ] ] ] ] } }
]
}
