{
"type": "FeatureCollection",
"name": "water_bau_lahore",
"crs": { "type": "name", "properties": { "name": "urn:ogc:def:crs:OGC:1.3:CRS84" } },
"features": [
{ "type": "Feature", "properties": { "demand_cls_2030": 4, "supply_cls_2030": 4, "bivar_cls_2030": 16, "demand_cls_2050": 4, "supply_cls_2050": 4, "bivar_cls_2050": 16, "demand_cls_2080": 4, "supply_cls_2080": 4, "bivar_cls_2080": 16 }, "geometry": { "type": "Polygon", "coordinates": [ [ [ 74.368622843369565, 31.36193271252472 ], [ 74.373043823313878, 31.36306728822484 ], [ 74.382396104396776, 31.371400621241719 ], [ 74.389710490247012, 31.370266045541598 ], [ 74.393622843319633, 31.36723395428362 ], [ 74.395833333741393, 31.366666666433559 ], [ 74.399999999800229, 31.366666666433559 ], [ 74.402210490221989, 31.36723395428362 ], [ 74.406122843294611, 31.370266045541598 ], [ 74.410543823238925, 31.371400621241719 ], [ 74.414456176311546, 31.374432712499754 ], [ 74.423043823213902, 31.375567288199818 ], [ 74.4269561771859, 31.378599378558533 ], [ 74.431377156230837, 31.379733954258654 ], [ 74.435416666246226, 31.382864549159649 ], [ 74.439456177160878, 31.379733954258654 ], [ 74.450746663627683, 31.378599378558533 ], [ 74.457365586652543, 31.38372921403203 ], [ 74.459213087314197, 31.390927971348844 ], [ 74.467413329661497, 31.392233954233632 ], [ 74.472789510127825, 31.388067288174852 ], [ 74.482445950020633, 31.386791483839943 ], [ 74.483900621416581, 31.381122843844196 ], [ 74.493217807355961, 31.370850626455308 ], [ 74.499295722519662, 31.375919426740211 ], [ 74.500567287450394, 31.38554382288919 ], [ 74.503599378708429, 31.389456176861131 ], [ 74.50473395440855, 31.393877156805388 ], [ 74.516099378683464, 31.406122843794265 ], [ 74.516666666533467, 31.408333333316705 ], [ 74.517322624839323, 31.41570688916164 ], [ 74.522912089421425, 31.420368279472598 ], [ 74.528420003480448, 31.41609937848358 ], [ 74.531377156930319, 31.4172339541837 ], [ 74.535416666945707, 31.420364549084752 ], [ 74.540920003455426, 31.41609937848358 ], [ 74.548043822964132, 31.4172339541837 ], [ 74.55, 31.418749999851357 ], [ 74.55, 31.35 ], [ 74.358333350005964, 31.35 ], [ 74.359253099251191, 31.35358378076694 ], [ 74.368622843369565, 31.36193271252472 ] ] ] } },
{ "type": "Feature", "properties": { "demand_cls_2030": 4, "supply_cls_2030": 3, "bivar_cls_2030": 15, "demand_cls_2050": 4, "supply_cls_2050": 3, "bivar_cls_2050": 15, "demand_cls_2080": 4, "supply_cls_2080": 3, "bivar_cls_2080": 15 }, "geometry": { "type": "Polygon", "coordinates": [ [ [ 74.540920003455426, 31.41609937848358 ], [ 74.535416666945707, 31.420364549084752 ], [ 74.531377156930319, 31.4172339541837 ], [ 74.528420003480448, 31.41609937848358 ], [ 74.522912089421425, 31.420368279472598 ], [ 74.517322624839323, 31.41570688916164 ], [ 74.516666666533467, 31.408333333316705 ], [ 74.516099378683464, 31.406122843794265 ], [ 74.50473395440855, 31.393877156805388 ], [ 74.503599378708429, 31.389456176861131 ], [ 74.500567287450394, 31.38554382288919 ], [ 74.499295722519662, 31.375919426740211 ], [ 74.493217807355961, 31.370850626455308 ], [ 74.483900621416581, 31.381122843844196 ], [ 74.482445950020633, 31.386791483839943 ], [ 74.472789510127825, 31.388067288174852 ], [ 74.467413329661497, 31.392233954233632 ], [ 74.459213087314197, 31.390927971348844 ], [ 74.457365586652543, 31.38372921403203 ], [ 74.450746663627683, 31.378599378558533 ], [ 74.439456177160878, 31.379733954258654 ], [ 74.435416666246226, 31.382864549159649 ], [ 74.431377156230837, 31.379733954258654 ], [ 74.4269561771859, 31.378599378558533 ], [ 74.423043823213902, 31.375567288199818 ], [ 74.414456176311546, 31.374432712499754 ], [ 74.410543823238925, 31.371400621241719 ], [ 74.406122843294611, 31.370266045541598 ], [ 74.402210490221989, 31.36723395428362 ], [ 74.399999999800229, 31.366666666433559 ], [ 74.395833333741393, 31.366666666433559 ], [ 74.393622843319633, 31.36723395428362 ], [ 74.389710490247012, 31.370266045541598 ], [ 74.382396104396776, 31.371400621241719 ], [ 74.373043823313878, 31.36306728822484 ], [ 74.368622843369565, 31.36193271252472 ], [ 74.359253099251191, 31.35358378076694 ], [ 74.358333350005964, 31.35 ], [ 74.15, 31.35 ], [ 74.15, 31.65 ], [ 74.55, 31.65 ], [ 74.55, 31.418749999851357 ], [ 74.548043822964132, 31.4172339541837 ], [ 74.540920003455426, 31.41609937848358 ] ] ] } }
]
}
